NORAD_CAT_ID,OBJECT_NAME,OBJECT_TYPE,EPOCH,MEAN_MOTION,ECCENTRICITY,INCLINATION,RA_OF_ASC_NODE,ARG_OF_PERICENTER,MEAN_ANOMALY,BSTAR,MEAN_MOTION_DOT,MEAN_MOTION_DDOT,TLE_LINE0,TLE_LINE1,TLE_LINE2,SEMIMAJOR_AXIS,PERIOD,APOGEE,PERIGEE,DECAYED
52866.0,STARLINK-4272,PAYLOAD,2024-07-31 23:13:55,15.08834328,0.0001681,53.2166,133.5305,82.0347,278.0836,2.0801e-05,4.3e-07,0.0,0 STARLINK-4272,1 52866U 22062AN  24213.96800205  .00000043  00000-0  20801-4 0  9993,2 52866  53.2166 133.5305 0001681  82.0347 278.0836 15.08834328117502,6917.898,95.438,540.926,538.6,0.0
52866.0,STARLINK-4272,PAYLOAD,2024-08-01 11:56:59,15.08848634,0.0001542,53.2177,131.1532,80.2929,279.8237,7.0534e-05,8.35e-06,0.0,0 STARLINK-4272,1 52866U 22062AN  24214.49791137  .00000835  00000-0  70534-4 0  9992,2 52866  53.2177 131.1532 0001542  80.2929 279.8237 15.08848634117589,6917.854,95.437,540.786,538.652,0.0
52866.0,STARLINK-4272,PAYLOAD,2024-08-01 18:18:31,15.08848773,0.0001538,53.2175,129.9638,80.0735,280.0431,8.8708e-05,1.124e-05,0.0,0 STARLINK-4272,1 52866U 22062AN  24214.76287021  .00001124  00000-0  88708-4 0  9998,2 52866  53.2175 129.9638 0001538  80.0735 280.0431 15.08848773118111,6917.854,95.437,540.783,538.655,0.0
52866.0,STARLINK-4272,PAYLOAD,2024-08-01 23:04:41,15.08852853,0.0001524,53.2174,129.072,79.8589,280.2575,0.00012751,1.743e-05,0.0,0 STARLINK-4272,1 52866U 22062AN  24214.96158579  .00001743  00000-0  12751-3 0  9996,2 52866  53.2174 129.0720 0001524  79.8589 280.2575 15.08852853117654,6917.841,95.437,540.76,538.652,0.0
52866.0,STARLINK-4272,PAYLOAD,2024-08-02 11:47:46,15.08843802,0.0001217,53.2172,126.6887,78.3709,281.7419,0.00013698,1.893e-05,0.0,0 STARLINK-4272,1 52866U 22062AN  24215.49151096  .00001893  00000-0  13698-3 0  9999,2 52866  53.2172 126.6887 0001217  78.3709 281.7419 15.08843802118227,6917.869,95.437,540.576,538.892,0.0
52866.0,STARLINK-4272,PAYLOAD,2024-08-02 21:20:06,15.08829952,0.0001583,53.2155,124.9029,98.6826,261.4345,0.00012658,1.727e-05,0.0,0 STARLINK-4272,1 52866U 22062AN  24215.88896068  .00001727  00000-0  12658-3 0  9998,2 52866  53.2155 124.9029 0001583  98.6826 261.4345 15.08829952118287,6917.911,95.438,540.871,538.681,0.0
52866.0,STARLINK-4272,PAYLOAD,2024-08-02 22:55:29,15.08829391,0.0001495,53.2162,124.6058,102.8924,257.2235,0.00012108,1.639e-05,0.0,0 STARLINK-4272,1 52866U 22062AN  24215.95520107  .00001639  00000-0  12108-3 0  9996,2 52866  53.2162 124.6058 0001495 102.8924 257.2235 15.08829391117808,6917.913,95.438,540.812,538.744,0.0
52866.0,STARLINK-4272,PAYLOAD,2024-08-03 03:41:38,15.0883294,0.0001647,53.2151,123.7154,80.2916,279.8262,-1.1677e-05,-4.74e-06,0.0,0 STARLINK-4272,1 52866U 22062AN  24216.15392151 -.00000474  00000-0 -11677-4 0  9994,2 52866  53.2151 123.7154 0001647  80.2916 279.8262 15.08832940117839,6917.902,95.438,540.906,538.628,0.0
52866.0,STARLINK-4272,PAYLOAD,2024-08-03 21:10:52,15.08847521,0.0001701,53.2154,120.4454,83.8998,276.2188,0.00010643,1.407e-05,0.0,0 STARLINK-4272,1 52866U 22062AN  24216.88255488  .00001407  00000-0  10643-3 0  9991,2 52866  53.2154 120.4454 0001701  83.8998 276.2188 15.08847521118435,6917.857,95.437,540.899,538.546,0.0
52866.0,STARLINK-4272,PAYLOAD,2024-08-03 22:46:15,15.08848939,0.0001656,53.2168,120.1483,83.0439,277.0741,0.00013224,1.818e-05,0.0,0 STARLINK-4272,1 52866U 22062AN  24216.94879443  .00001818  00000-0  13224-3 0  9995,2 52866  53.2168 120.1483 0001656  83.0439 277.0741 15.08848939117954,6917.853,95.437,540.864,538.572,0.0
52866.0,STARLINK-4272,PAYLOAD,2024-08-04 03:32:24,15.08857779,0.0001395,53.2162,119.2542,79.8653,280.2496,0.00044446,6.796e-05,0.0,0 STARLINK-4272,1 52866U 22062AN  24217.14751137  .00006796  00000-0  44446-3 0  9997,2 52866  53.2162 119.2542 0001395  79.8653 280.2496 15.08857779117982,6917.826,95.436,540.656,538.726,0.0
52866.0,STARLINK-4272,PAYLOAD,2024-08-04 22:37:02,15.08857106,0.0001755,53.2163,115.6831,65.3317,294.7858,0.00051319,7.893e-05,0.0,0 STARLINK-4272,1 52866U 22062AN  24217.94239339  .00007893  00000-0  51319-3 0  9996,2 52866  53.2163 115.6831 0001755  65.3317 294.7858 15.08857106118102,6917.828,95.436,540.907,538.479,0.0
52866.0,STARLINK-4272,PAYLOAD,2024-08-05 03:23:11,15.08881717,0.0001425,53.2161,114.7942,85.0599,275.0556,0.0011045,0.00017354,0.0,0 STARLINK-4272,1 52866U 22062AN  24218.14110393  .00017354  00000-0  11045-2 0  9991,2 52866  53.2161 114.7942 0001425  85.0599 275.0556 15.08881717118627,6917.753,95.435,540.604,538.632,0.0
52866.0,STARLINK-4272,PAYLOAD,2024-08-05 22:27:50,15.08818117,0.0001791,53.2174,111.237,117.0424,243.0751,-0.00067846,-0.00011063,0.0,0 STARLINK-4272,1 52866U 22062AN  24218.93600058 -.00011063  00000-0 -67846-3 0  9994,2 52866  53.2174 111.2370 0001791 117.0424 243.0751 15.08818117118252,6917.947,95.439,541.051,538.573,0.0
52866.0,STARLINK-4272,PAYLOAD,2024-08-06 04:49:23,15.08824356,0.0001393,53.2168,110.0399,85.215,274.9001,0.00020117,2.914e-05,0.0,0 STARLINK-4272,1 52866U 22062AN  24219.20096423  .00002914  00000-0  20117-3 0  9993,2 52866  53.2168 110.0399 0001393  85.2150 274.9001 15.08824356118784,6917.928,95.439,540.757,538.83,0.0
52866.0,STARLINK-4272,PAYLOAD,2024-08-06 22:18:37,15.08856852,0.0001249,53.2155,106.7676,68.2237,291.8888,0.0014524,0.00022913,0.0,0 STARLINK-4272,1 52866U 22062AN  24219.92960626  .00022913  00000-0  14524-2 0  9992,2 52866  53.2155 106.7676 0001249  68.2237 291.8888 15.08856852118403,6917.829,95.436,540.558,538.83,0.0
52866.0,STARLINK-4272,PAYLOAD,2024-08-07 01:29:23,15.08873963,0.0001212,53.2154,106.1728,69.5864,290.5258,0.0020188,0.00032017,0.0,0 STARLINK-4272,1 52866U 22062AN  24220.06208296  .00032017  00000-0  20188-2 0  9996,2 52866  53.2154 106.1728 0001212  69.5864 290.5258 15.08873963118919,6917.777,95.435,540.48,538.803,0.0
52866.0,STARLINK-4272,PAYLOAD,2024-08-07 20:34:01,15.08866586,0.0001252,53.215,102.6042,83.1794,276.934,0.0018508,0.00029312,0.0,0 STARLINK-4272,1 52866U 22062AN  24220.85696192  .00029312  00000-0  18508-2 0  9996,2 52866  53.2150 102.6042 0001252  83.1794 276.9340 15.08866586119030,6917.799,95.436,540.53,538.798,0.0
52866.0,STARLINK-4272,PAYLOAD,2024-08-08 22:00:11,15.08880938,0.0001526,53.2156,97.846,91.2316,268.8851,0.0022664,0.00036007,0.0,0 STARLINK-4272,1 52866U 22062AN  24221.91679847  .00036007  00000-0  22664-2 0  9999,2 52866  53.2156  97.8460 0001526  91.2316 268.8851 15.08880938119190,6917.755,95.435,540.676,538.565,0.0
52866.0,STARLINK-4272,PAYLOAD,2024-08-09 09:07:53,15.08844967,0.0001387,53.216,95.7608,98.4024,261.7126,0.00090737,0.00014184,0.0,0 STARLINK-4272,1 52866U 22062AN  24222.38047943  .00014184  00000-0  90737-3 0  9996,2 52866  53.2160  95.7608 0001387  98.4024 261.7126 15.08844967119263,6917.865,95.437,540.69,538.771,0.0
52866.0,STARLINK-4272,PAYLOAD,2024-08-09 20:15:35,15.08842855,0.0001307,53.2167,93.6823,80.76,279.354,0.00040778,6.208e-05,0.0,0 STARLINK-4272,1 52866U 22062AN  24222.84416122  .00006208  00000-0  40778-3 0  9994,2 52866  53.2167  93.6823 0001307  80.7600 279.3540 15.08842855119339,6917.872,95.437,540.641,538.832,0.0
52866.0,STARLINK-4272,PAYLOAD,2024-08-09 21:50:58,15.08848797,0.0001588,53.217,93.3856,78.7307,281.3864,0.00071984,0.0001119,0.0,0 STARLINK-4272,1 52866U 22062AN  24222.91040171  .00011190  00000-0  71984-3 0  9998,2 52866  53.2170  93.3856 0001588  78.7307 281.3864 15.08848797118857,6917.854,95.437,540.817,538.62,0.0
52866.0,STARLINK-4272,PAYLOAD,2024-08-10 01:01:45,15.08847183,0.0001792,53.2186,92.7868,90.8174,269.3024,0.001244,0.0001957,0.0,0 STARLINK-4272,1 52866U 22062AN  24223.04288242  .00019570  00000-0  12440-2 0  9997,2 52866  53.2186  92.7868 0001792  90.8174 269.3024 15.08847183118878,6917.858,95.437,540.963,538.484,0.0
52866.0,STARLINK-4272,PAYLOAD,2024-08-10 21:41:45,15.08854345,0.0001389,53.2171,88.9232,97.1741,262.9409,0.00080389,0.00012534,0.0,0 STARLINK-4272,1 52866U 22062AN  24223.90400387  .00012534  00000-0  80389-3 0  9999,2 52866  53.2171  88.9232 0001389  97.1741 262.9409 15.08854345119499,6917.837,95.437,540.662,538.741,0.0
52866.0,STARLINK-4272,PAYLOAD,2024-08-11 21:32:33,15.08866361,0.0002469,53.2174,84.462,82.6424,277.4849,0.0017576,0.00027816,0.0,0 STARLINK-4272,1 52866U 22062AN  24224.89760573  .00027816  00000-0  17576-2 0  9990,2 52866  53.2174  84.4620 0002469  82.6424 277.4849 15.08866361119648,6917.8,95.436,541.373,537.957,0.0
52866.0,STARLINK-4272,PAYLOAD,2024-08-12 00:43:19,15.08864319,0.0001336,53.2175,83.8682,62.6478,297.465,0.0016886,0.00026706,0.0,0 STARLINK-4272,1 52866U 22062AN  24225.03008412  .00026706  00000-0  16886-2 0  9994,2 52866  53.2175  83.8682 0001336  62.6478 297.4650 15.08864319119664,6917.806,95.436,540.595,538.747,0.0
52866.0,STARLINK-4272,PAYLOAD,2024-08-12 15:01:47,15.08853186,0.0001338,53.2174,81.1915,78.0104,282.1038,0.002603,0.00041397,0.0,0 STARLINK-4272,1 52866U 22062AN  24225.62624457  .00041397  00000-0  26030-2 0  9997,2 52866  53.2174  81.1915 0001338  78.0104 282.1038 15.08853186119269,6917.84,95.437,540.631,538.779,0.0
52866.0,STARLINK-4272,PAYLOAD,2024-08-12 21:23:19,15.08901694,0.0001609,53.2174,80.0027,65.0686,295.0473,0.0037752,0.00060412,0.0,0 STARLINK-4272,1 52866U 22062AN  24225.89119790  .00060412  00000-0  37752-2 0  9997,2 52866  53.2174  80.0027 0001609  65.0686 295.0473 15.08901694119795,6917.692,95.434,540.67,538.444,0.0
52866.0,STARLINK-4272,PAYLOAD,2024-08-13 06:55:37,15.0886989,0.0002133,53.2173,78.2164,47.24,312.8772,0.001287,0.00020271,0.0,0 STARLINK-4272,1 52866U 22062AN  24226.28863282  .00020271  00000-0  12870-2 0  9996,2 52866  53.2173  78.2164 0002133  47.2400 312.8772 15.08869890119852,6917.789,95.436,541.13,538.178,0.0
52866.0,STARLINK-4272,PAYLOAD,2024-08-13 21:14:08,15.08787915,0.000162,53.2177,75.5424,82.8611,277.2566,0.00018617,2.672e-05,0.0,0 STARLINK-4272,1 52866U 22062AN  24226.88481711  .00002672  00000-0  18617-3 0  9996,2 52866  53.2177  75.5424 0001620  82.8611 277.2566 15.08787915119946,6918.04,95.441,541.025,538.784,0.0
